[{"OBJECT_NAME":"STARLINK-31688","OBJECT_ID":"2024-062N","EPOCH":"2026-03-09T19:38:19.347072","MEAN_MOTION":15.30190387,"ECCENTRICITY":0.00013796,"INCLINATION":53.1597,"RA_OF_ASC_NODE":257.7291,"ARG_OF_PERICENTER":122.6372,"MEAN_ANOMALY":237.4762,"EPHEMERIS_TYPE":0,"CLASSIFICATION_TYPE":"U","NORAD_CAT_ID":59386,"ELEMENT_SET_NO":999,"REV_AT_EPOCH":10961,"BSTAR":-8.272869e-6,"MEAN_MOTION_DOT":-6.04e-6,"MEAN_MOTION_DDOT":0},{"OBJECT_NAME":"PUCP-SAT 1","OBJECT_ID":"2013-066AC","EPOCH":"2026-03-09T22:02:13.763904","MEAN_MOTION":15.29426022,"ECCENTRICITY":0.00136836,"INCLINATION":97.5787,"RA_OF_ASC_NODE":61.0032,"ARG_OF_PERICENTER":300.1183,"MEAN_ANOMALY":59.87,"EPHEMERIS_TYPE":0,"CLASSIFICATION_TYPE":"U","NORAD_CAT_ID":39442,"ELEMENT_SET_NO":999,"REV_AT_EPOCH":66907,"BSTAR":0.00088755185,"MEAN_MOTION_DOT":0.00025373,"MEAN_MOTION_DDOT":0}]
